{
  "links" : {
    "next" : "https://api.nasa.gov/neo/rest/v1/feed?start_date=2002-07-23&end_date=2002-07-23&detailed=true&api_key=t0TVs3DtDT2H8Oy2Zy8m2eVrNsAVKAexjcZXUckd",
    "prev" : "https://api.nasa.gov/neo/rest/v1/feed?start_date=2002-07-21&end_date=2002-07-21&detailed=true&api_key=t0TVs3DtDT2H8Oy2Zy8m2eVrNsAVKAexjcZXUckd",
    "self" : "https://api.nasa.gov/neo/rest/v1/feed?start_date=2002-07-22&end_date=2002-07-22&detailed=true&api_key=t0TVs3DtDT2H8Oy2Zy8m2eVrNsAVKAexjcZXUckd"
  },
  "element_count" : 5,
  "near_earth_objects" : {
    "2002-07-22" : [ {
      "links" : {
        "self" : "https://api.nasa.gov/neo/rest/v1/neo/3170231?api_key=t0TVs3DtDT2H8Oy2Zy8m2eVrNsAVKAexjcZXUckd"
      },
      "neo_reference_id" : "3170231",
      "name" : "(2003 YL118)",
      "nasa_jpl_url" : "http://ssd.jpl.nasa.gov/sbdb.cgi?sstr=3170231",
      "absolute_magnitude_h" : 21.6,
      "estimated_diameter" : {
        "kilometers" : {
          "estimated_diameter_min" : 0.1272198785,
          "estimated_diameter_max" : 0.2844722965
        },
        "meters" : {
          "estimated_diameter_min" : 127.2198785394,
          "estimated_diameter_max" : 284.4722965033
        },
        "miles" : {
          "estimated_diameter_min" : 0.0790507431,
          "estimated_diameter_max" : 0.1767628354
        },
        "feet" : {
          "estimated_diameter_min" : 417.3880663071,
          "estimated_diameter_max" : 933.3080892598
        }
      },
      "is_potentially_hazardous_asteroid" : true,
      "close_approach_data" : [ {
        "close_approach_date" : "2002-07-22",
        "epoch_date_close_approach" : 1027321200000,
        "relative_velocity" : {
          "kilometers_per_second" : "14.5693382398",
          "kilometers_per_hour" : "52449.6176631277",
          "miles_per_hour" : "32590.152708514"
        },
        "miss_distance" : {
          "astronomical" : "0.3748291965",
          "lunar" : "145.8085632324",
          "kilometers" : "56073652",
          "miles" : "34842552"
        },
        "orbiting_body" : "Earth"
      } ],
      "orbital_data" : {
        "orbit_id" : "26",
        "orbit_determination_date" : "2017-04-06 09:13:21",
        "orbit_uncertainty" : "0",
        "minimum_orbit_intersection" : ".0212139",
        "jupiter_tisserand_invariant" : "5.412",
        "epoch_osculation" : "2455713.5",
        "eccentricity" : ".4862072148864076",
        "semi_major_axis" : "1.130047953480842",
        "inclination" : "7.612151869425832",
        "ascending_node_longitude" : "278.8182347787312",
        "orbital_period" : "438.7768808682202",
        "perihelion_distance" : ".5806104853308371",
        "perihelion_argument" : "65.60857109513117",
        "aphelion_distance" : "1.679485421630847",
        "perihelion_time" : "2455570.117177803591",
        "mean_anomaly" : "117.640236396616",
        "mean_motion" : ".8204625532859842",
        "equinox" : "J2000"
      }
    }, {
      "links" : {
        "self" : "https://api.nasa.gov/neo/rest/v1/neo/3350632?api_key=t0TVs3DtDT2H8Oy2Zy8m2eVrNsAVKAexjcZXUckd"
      },
      "neo_reference_id" : "3350632",
      "name" : "(2006 TS7)",
      "nasa_jpl_url" : "http://ssd.jpl.nasa.gov/sbdb.cgi?sstr=3350632",
      "absolute_magnitude_h" : 21.2,
      "estimated_diameter" : {
        "kilometers" : {
          "estimated_diameter_min" : 0.1529519353,
          "estimated_diameter_max" : 0.3420109247
        },
        "meters" : {
          "estimated_diameter_min" : 152.9519353442,
          "estimated_diameter_max" : 342.0109247198
        },
        "miles" : {
          "estimated_diameter_min" : 0.095039897,
          "estimated_diameter_max" : 0.2125156703
        },
        "feet" : {
          "estimated_diameter_min" : 501.8108275547,
          "estimated_diameter_max" : 1122.0831222578
        }
      },
      "is_potentially_hazardous_asteroid" : true,
      "close_approach_data" : [ {
        "close_approach_date" : "2002-07-22",
        "epoch_date_close_approach" : 1027321200000,
        "relative_velocity" : {
          "kilometers_per_second" : "20.9817048271",
          "kilometers_per_hour" : "75534.1373776122",
          "miles_per_hour" : "46933.9755277724"
        },
        "miss_distance" : {
          "astronomical" : "0.141723414",
          "lunar" : "55.130405426",
          "kilometers" : "21201520",
          "miles" : "13174014"
        },
        "orbiting_body" : "Earth"
      } ],
      "orbital_data" : {
        "orbit_id" : "34",
        "orbit_determination_date" : "2016-10-04 06:44:48",
        "orbit_uncertainty" : "0",
        "minimum_orbit_intersection" : ".0155214",
        "jupiter_tisserand_invariant" : "6.187",
        "epoch_osculation" : "2457600.5",
        "eccentricity" : ".5802499697120643",
        "semi_major_axis" : ".9467959218671989",
        "inclination" : "5.471217844637127",
        "ascending_node_longitude" : "225.269792240185",
        "orbital_period" : "336.4983932191337",
        "perihelion_distance" : ".3974176168802507",
        "perihelion_argument" : "299.9021280398831",
        "aphelion_distance" : "1.496174226854147",
        "perihelion_time" : "2457468.499670782469",
        "mean_anomaly" : "141.2194514918982",
        "mean_motion" : "1.069841661221727",
        "equinox" : "J2000"
      }
    }, {
      "links" : {
        "self" : "https://api.nasa.gov/neo/rest/v1/neo/3449054?api_key=t0TVs3DtDT2H8Oy2Zy8m2eVrNsAVKAexjcZXUckd"
      },
      "neo_reference_id" : "3449054",
      "name" : "(2009 DL46)",
      "nasa_jpl_url" : "http://ssd.jpl.nasa.gov/sbdb.cgi?sstr=3449054",
      "absolute_magnitude_h" : 22.0,
      "estimated_diameter" : {
        "kilometers" : {
          "estimated_diameter_min" : 0.1058168859,
          "estimated_diameter_max" : 0.2366137501
        },
        "meters" : {
          "estimated_diameter_min" : 105.8168859331,
          "estimated_diameter_max" : 236.6137501138
        },
        "miles" : {
          "estimated_diameter_min" : 0.0657515442,
          "estimated_diameter_max" : 0.1470249225
        },
        "feet" : {
          "estimated_diameter_min" : 347.1682720448,
          "estimated_diameter_max" : 776.2918559233
        }
      },
      "is_potentially_hazardous_asteroid" : true,
      "close_approach_data" : [ {
        "close_approach_date" : "2002-07-22",
        "epoch_date_close_approach" : 1027321200000,
        "relative_velocity" : {
          "kilometers_per_second" : "3.5215200827",
          "kilometers_per_hour" : "12677.4722977259",
          "miles_per_hour" : "7877.2882729953"
        },
        "miss_distance" : {
          "astronomical" : "0.4405733776",
          "lunar" : "171.3830413818",
          "kilometers" : "65908836",
          "miles" : "40953852"
        },
        "orbiting_body" : "Earth"
      } ],
      "orbital_data" : {
        "orbit_id" : "70",
        "orbit_determination_date" : "2017-06-17 06:17:07",
        "orbit_uncertainty" : "0",
        "minimum_orbit_intersection" : ".0127543",
        "jupiter_tisserand_invariant" : "4.561",
        "epoch_osculation" : "2458000.5",
        "eccentricity" : ".3072637758780314",
        "semi_major_axis" : "1.460853976606631",
        "inclination" : "7.916406626736255",
        "ascending_node_longitude" : "63.40752498239261",
        "orbital_period" : "644.9241463696675",
        "perihelion_distance" : "1.01198646774804",
        "perihelion_argument" : "160.2945642429436",
        "aphelion_distance" : "1.909721485465221",
        "perihelion_time" : "2458160.395355860712",
        "mean_anomaly" : "270.7455839048986",
        "mean_motion" : ".5582051812239787",
        "equinox" : "J2000"
      }
    } ]
  }
}